ASTROCAST-0401          
1 55110U 23001DF  26068.71172895  .00009750  00000+0  37868-3 0  9995
2 55110  97.5547 160.5206 0008142 188.4231 171.6872 15.26258462176022
STARLINK-33758          
1 64004U 25101L   26067.83674913  .00044004  00000+0  15990-2 0  9992
2 64004  43.0012   2.8821 0000507 258.3313 101.7481 15.27581192 46928
